CCSDS_OMM_VERS = 2.0
CREATION_DATE  = 
ORIGINATOR     = 

OBJECT_NAME    = STARLINK-1598
OBJECT_ID      = 2020-057AV
CENTER_NAME    = EARTH
REF_FRAME      = TEME
TIME_SYSTEM    = UTC
MEAN_ELEMENT_THEORY = SGP/SGP4

EPOCH          = 2020-09-09T06:00:00.999648
MEAN_MOTION    = 15.66253278
ECCENTRICITY   = .0000899
INCLINATION    = 52.9997
RA_OF_ASC_NODE = 333.6056
ARG_OF_PERICENTER = 32.3480
MEAN_ANOMALY   = 287.7360

EPHEMERIS_TYPE = 0
CLASSIFICATION_TYPE = U
NORAD_CAT_ID   = 46160
ELEMENT_SET_NO = 999
REV_AT_EPOCH   = 177
BSTAR          = .21562E-3
MEAN_MOTION_DOT = 2.2184E-4
MEAN_MOTION_DDOT = 0

CCSDS_OMM_VERS = 2.0
CREATION_DATE  = 
ORIGINATOR     = 

OBJECT_NAME    = STARLINK-1600
OBJECT_ID      = 2020-057AW
CENTER_NAME    = EARTH
REF_FRAME      = TEME
TIME_SYSTEM    = UTC
MEAN_ELEMENT_THEORY = SGP/SGP4

EPOCH          = 2020-09-09T06:00:00.999648
MEAN_MOTION    = 15.66240563
ECCENTRICITY   = .0001497
INCLINATION    = 52.9977
RA_OF_ASC_NODE = 333.6245
ARG_OF_PERICENTER = 74.0433
MEAN_ANOMALY   = 233.2309

EPHEMERIS_TYPE = 0
CLASSIFICATION_TYPE = U
NORAD_CAT_ID   = 46161
ELEMENT_SET_NO = 999
REV_AT_EPOCH   = 182
BSTAR          = .23181E-3
MEAN_MOTION_DOT = 2.3885E-4
MEAN_MOTION_DDOT = 0

CCSDS_OMM_VERS = 2.0
CREATION_DATE  = 
ORIGINATOR     = 

OBJECT_NAME    = STARLINK-1603
OBJECT_ID      = 2020-057AX
CENTER_NAME    = EARTH
REF_FRAME      = TEME
TIME_SYSTEM    = UTC
MEAN_ELEMENT_THEORY = SGP/SGP4

EPOCH          = 2020-09-09T06:00:00.999648
MEAN_MOTION    = 15.66255955
ECCENTRICITY   = .0000945
INCLINATION    = 52.9996
RA_OF_ASC_NODE = 333.5938
ARG_OF_PERICENTER = 34.8007
MEAN_ANOMALY   = 288.2430

EPHEMERIS_TYPE = 0
CLASSIFICATION_TYPE = U
NORAD_CAT_ID   = 46162
ELEMENT_SET_NO = 999
REV_AT_EPOCH   = 177
BSTAR          = .21680E-3
MEAN_MOTION_DOT = 2.2312E-4
MEAN_MOTION_DDOT = 0

CCSDS_OMM_VERS = 2.0
CREATION_DATE  = 
ORIGINATOR     = 

OBJECT_NAME    = STARLINK-1610
OBJECT_ID      = 2020-057AY
CENTER_NAME    = EARTH
REF_FRAME      = TEME
TIME_SYSTEM    = UTC
MEAN_ELEMENT_THEORY = SGP/SGP4

EPOCH          = 2020-09-09T06:00:00.999648
MEAN_MOTION    = 15.66287859
ECCENTRICITY   = .0001373
INCLINATION    = 52.9997
RA_OF_ASC_NODE = 333.5886
ARG_OF_PERICENTER = 71.8162
MEAN_ANOMALY   = 256.5215

EPHEMERIS_TYPE = 0
CLASSIFICATION_TYPE = U
NORAD_CAT_ID   = 46163
ELEMENT_SET_NO = 999
REV_AT_EPOCH   = 177
BSTAR          = .21939E-3
MEAN_MOTION_DOT = 2.2615E-4
MEAN_MOTION_DDOT = 0

CCSDS_OMM_VERS = 2.0
CREATION_DATE  = 
ORIGINATOR     = 

OBJECT_NAME    = STARLINK-1612
OBJECT_ID      = 2020-057AZ
CENTER_NAME    = EARTH
REF_FRAME      = TEME
TIME_SYSTEM    = UTC
MEAN_ELEMENT_THEORY = SGP/SGP4

EPOCH          = 2020-09-09T06:00:00.999648
MEAN_MOTION    = 15.66258015
ECCENTRICITY   = .0001262
INCLINATION    = 52.9993
RA_OF_ASC_NODE = 333.5792
ARG_OF_PERICENTER = 328.7259
MEAN_ANOMALY   = 2.0245

EPHEMERIS_TYPE = 0
CLASSIFICATION_TYPE = U
NORAD_CAT_ID   = 46164
ELEMENT_SET_NO = 999
REV_AT_EPOCH   = 177
BSTAR          = .21763E-3
MEAN_MOTION_DOT = 2.2401E-4
MEAN_MOTION_DDOT = 0

CCSDS_OMM_VERS = 2.0
CREATION_DATE  = 
ORIGINATOR     = 

OBJECT_NAME    = STARLINK-1613
OBJECT_ID      = 2020-057BA
CENTER_NAME    = EARTH
REF_FRAME      = TEME
TIME_SYSTEM    = UTC
MEAN_ELEMENT_THEORY = SGP/SGP4

EPOCH          = 2020-09-09T12:00:00.999648
MEAN_MOTION    = 15.62827921
ECCENTRICITY   = .0001424
INCLINATION    = 53.0013
RA_OF_ASC_NODE = 332.7499
ARG_OF_PERICENTER = 57.3139
MEAN_ANOMALY   = 50.4330

EPHEMERIS_TYPE = 0
CLASSIFICATION_TYPE = U
NORAD_CAT_ID   = 46165
ELEMENT_SET_NO = 999
REV_AT_EPOCH   = 412
BSTAR          = -.11578E-2
MEAN_MOTION_DOT = -1.05492E-3
MEAN_MOTION_DDOT = 0

CCSDS_OMM_VERS = 2.0
CREATION_DATE  = 
ORIGINATOR     = 

OBJECT_NAME    = STARLINK-1615
OBJECT_ID      = 2020-057BB
CENTER_NAME    = EARTH
REF_FRAME      = TEME
TIME_SYSTEM    = UTC
MEAN_ELEMENT_THEORY = SGP/SGP4

EPOCH          = 2020-09-09T06:00:00.999648
MEAN_MOTION    = 15.60311524
ECCENTRICITY   = .0001520
INCLINATION    = 52.9978
RA_OF_ASC_NODE = 333.9961
ARG_OF_PERICENTER = 48.9298
MEAN_ANOMALY   = 96.7426

EPHEMERIS_TYPE = 0
CLASSIFICATION_TYPE = U
NORAD_CAT_ID   = 46166
ELEMENT_SET_NO = 999
REV_AT_EPOCH   = 182
BSTAR          = -.14512E-1
MEAN_MOTION_DOT = -1.097275E-2
MEAN_MOTION_DDOT = 0

CCSDS_OMM_VERS = 2.0
CREATION_DATE  = 
ORIGINATOR     = 

OBJECT_NAME    = STARLINK-1626
OBJECT_ID      = 2020-057BC
CENTER_NAME    = EARTH
REF_FRAME      = TEME
TIME_SYSTEM    = UTC
MEAN_ELEMENT_THEORY = SGP/SGP4

EPOCH          = 2020-09-09T06:00:00.999648
MEAN_MOTION    = 15.62756437
ECCENTRICITY   = .0001608
INCLINATION    = 52.9994
RA_OF_ASC_NODE = 333.9637
ARG_OF_PERICENTER = 314.5553
MEAN_ANOMALY   = 189.7265

EPHEMERIS_TYPE = 0
CLASSIFICATION_TYPE = U
NORAD_CAT_ID   = 46167
ELEMENT_SET_NO = 999
REV_AT_EPOCH   = 177
BSTAR          = .30662E-3
MEAN_MOTION_DOT = 2.764E-4
MEAN_MOTION_DDOT = 0

CCSDS_OMM_VERS = 2.0
CREATION_DATE  = 
ORIGINATOR     = 

OBJECT_NAME    = STARLINK-1627
OBJECT_ID      = 2020-057BD
CENTER_NAME    = EARTH
REF_FRAME      = TEME
TIME_SYSTEM    = UTC
MEAN_ELEMENT_THEORY = SGP/SGP4

EPOCH          = 2020-09-09T12:00:00.999648
MEAN_MOTION    = 15.62802400
ECCENTRICITY   = .0001920
INCLINATION    = 52.9994
RA_OF_ASC_NODE = 332.7317
ARG_OF_PERICENTER = 307.2224
MEAN_ANOMALY   = 167.6732

EPHEMERIS_TYPE = 0
CLASSIFICATION_TYPE = U
NORAD_CAT_ID   = 46168
ELEMENT_SET_NO = 999
REV_AT_EPOCH   = 412
BSTAR          = -.12034E-2
MEAN_MOTION_DOT = -1.09471E-3
MEAN_MOTION_DDOT = 0

CCSDS_OMM_VERS = 2.0
CREATION_DATE  = 
ORIGINATOR     = 

OBJECT_NAME    = STARLINK-1628
OBJECT_ID      = 2020-057BE
CENTER_NAME    = EARTH
REF_FRAME      = TEME
TIME_SYSTEM    = UTC
MEAN_ELEMENT_THEORY = SGP/SGP4

EPOCH          = 2020-09-09T12:00:00.999648
MEAN_MOTION    = 15.62759837
ECCENTRICITY   = .0001304
INCLINATION    = 53.0011
RA_OF_ASC_NODE = 332.7227
ARG_OF_PERICENTER = 50.9819
MEAN_ANOMALY   = 63.0900

EPHEMERIS_TYPE = 0
CLASSIFICATION_TYPE = U
NORAD_CAT_ID   = 46169
ELEMENT_SET_NO = 999
REV_AT_EPOCH   = 412
BSTAR          = .12180E-4
MEAN_MOTION_DOT = 5.81E-6
MEAN_MOTION_DDOT = 0

CCSDS_OMM_VERS = 2.0
CREATION_DATE  = 
ORIGINATOR     = 

OBJECT_NAME    = STARLINK-1632
OBJECT_ID      = 2020-057BF
CENTER_NAME    = EARTH
REF_FRAME      = TEME
TIME_SYSTEM    = UTC
MEAN_ELEMENT_THEORY = SGP/SGP4

EPOCH          = 2020-09-09T06:00:00.999648
MEAN_MOTION    = 15.62743284
ECCENTRICITY   = .0001181
INCLINATION    = 52.9998
RA_OF_ASC_NODE = 333.9554
ARG_OF_PERICENTER = 57.1276
MEAN_ANOMALY   = 93.0302

EPHEMERIS_TYPE = 0
CLASSIFICATION_TYPE = U
NORAD_CAT_ID   = 46170
ELEMENT_SET_NO = 999
REV_AT_EPOCH   = 177
BSTAR          = -.41591E-3
MEAN_MOTION_DOT = -3.8422E-4
MEAN_MOTION_DDOT = 0

CCSDS_OMM_VERS = 2.0
CREATION_DATE  = 
ORIGINATOR     = 

OBJECT_NAME    = STARLINK-1633
OBJECT_ID      = 2020-057BG
CENTER_NAME    = EARTH
REF_FRAME      = TEME
TIME_SYSTEM    = UTC
MEAN_ELEMENT_THEORY = SGP/SGP4

EPOCH          = 2020-09-09T06:00:00.999648
MEAN_MOTION    = 15.66246831
ECCENTRICITY   = .0001440
INCLINATION    = 52.9980
RA_OF_ASC_NODE = 333.6341
ARG_OF_PERICENTER = 67.2860
MEAN_ANOMALY   = 235.0450

EPHEMERIS_TYPE = 0
CLASSIFICATION_TYPE = U
NORAD_CAT_ID   = 46171
ELEMENT_SET_NO = 999
REV_AT_EPOCH   = 182
BSTAR          = .23590E-3
MEAN_MOTION_DOT = 2.4324E-4
MEAN_MOTION_DDOT = 0

